{
  "type": "FeatureCollection",
  "features": [
    {
      "type": "Feature",
      "properties": {
        "norad_id": 31248,
        "name": "FENGYUN 1C DEB",
        "group": "fengyun-1c-debris",
        "lat": -55.17364768517313,
        "lon": 47.84072644753968,
        "alt_km": 859.809073385878,
        "timestamp": "2025-12-02T19:35:50.837202+00:00",
        "meta_object_name": "FENGYUN 1C DEB",
        "meta_object_id": "1999-025BME",
        "meta_epoch": "2025-12-02T02:45:39.580416",
        "meta_mean_motion": 13.92758198,
        "meta_eccentricity": 0.0109757,
        "meta_inclination": 99.2654,
        "meta_ra_of_asc_node": 33.5687,
        "meta_arg_of_pericenter": 340.39,
        "meta_mean_anomaly": 48.6423,
        "meta_ephemeris_type": 0,
        "meta_classification_type": "U",
        "meta_norad_cat_id": 31248,
        "meta_element_set_no": 999,
        "meta_rev_at_epoch": 94676,
        "meta_bstar": 0.00064820906,
        "meta_mean_motion_dot": 8.36e-06,
        "meta_mean_motion_ddot": 0,
        "tle_line1": "1 31248U 99025BME 25336.11504144  .00000836  00000+0  64821-3 0  9992",
        "tle_line2": "2 31248  99.2654  33.5687 0109757 340.3900  48.6423 13.92758198946767"
      },
      "geometry": {
        "type": "Point",
        "coordinates": [
          47.84072644753968,
          -55.17364768517313
        ]
      }
    },
    {
      "type": "Feature",
      "properties": {
        "norad_id": 31250,
        "name": "FENGYUN 1C DEB",
        "group": "fengyun-1c-debris",
        "lat": 50.00100959016501,
        "lon": 17.743350582779893,
        "alt_km": 972.1235951686649,
        "timestamp": "2025-12-02T19:35:50.837212+00:00",
        "meta_object_name": "FENGYUN 1C DEB",
        "meta_object_id": "1999-025BMG",
        "meta_epoch": "2025-11-27T20:53:06.321984",
        "meta_mean_motion": 14.02996088,
        "meta_eccentricity": 0.01342537,
        "meta_inclination": 98.3888,
        "meta_ra_of_asc_node": 183.0534,
        "meta_arg_of_pericenter": 339.6638,
        "meta_mean_anomaly": 19.9213,
        "meta_ephemeris_type": 0,
        "meta_classification_type": "U",
        "meta_norad_cat_id": 31250,
        "meta_element_set_no": 999,
        "meta_rev_at_epoch": 95309,
        "meta_bstar": 0.0013427936,
        "meta_mean_motion_dot": 2.218e-05,
        "meta_mean_motion_ddot": 0,
        "tle_line1": "1 31250U 99025BMG 25331.87021206  .00002218  00000+0  13428-2 0  9998",
        "tle_line2": "2 31250  98.3888 183.0534 0134253 339.6638  19.9213 14.02996088953095"
      },
      "geometry": {
        "type": "Point",
        "coordinates": [
          17.743350582779893,
          50.00100959016501
        ]
      }
    },
    {
      "type": "Feature",
      "properties": {
        "norad_id": 31252,
        "name": "FENGYUN 1C DEB",
        "group": "fengyun-1c-debris",
        "lat": -54.170112652994916,
        "lon": 7.627759130243405,
        "alt_km": 795.9899448304868,
        "timestamp": "2025-12-02T19:35:50.837223+00:00",
        "meta_object_name": "FENGYUN 1C DEB",
        "meta_object_id": "1999-025BMJ",
        "meta_epoch": "2025-11-29T18:29:15.110592",
        "meta_mean_motion": 14.40109832,
        "meta_eccentricity": 0.02131515,
        "meta_inclination": 98.3188,
        "meta_ra_of_asc_node": 352.9738,
        "meta_arg_of_pericenter": 211.3131,
        "meta_mean_anomaly": 147.522,
        "meta_ephemeris_type": 0,
        "meta_classification_type": "U",
        "meta_norad_cat_id": 31252,
        "meta_element_set_no": 999,
        "meta_rev_at_epoch": 97020,
        "meta_bstar": 0.0003997596,
        "meta_mean_motion_dot": 1.598e-05,
        "meta_mean_motion_ddot": 0,
        "tle_line1": "1 31252U 99025BMJ 25333.77031378  .00001598  00000+0  39976-3 0  9999",
        "tle_line2": "2 31252  98.3188 352.9738 0213151 211.3131 147.5220 14.40109832970205"
      },
      "geometry": {
        "type": "Point",
        "coordinates": [
          7.627759130243405,
          -54.170112652994916
        ]
      }
    },
    {
      "type": "Feature",
      "properties": {
        "norad_id": 31253,
        "name": "FENGYUN 1C DEB",
        "group": "fengyun-1c-debris",
        "lat": -75.76355008097008,
        "lon": 80.90147295461124,
        "alt_km": 1089.597639249494,
        "timestamp": "2025-12-02T19:35:50.837233+00:00",
        "meta_object_name": "FENGYUN 1C DEB",
        "meta_object_id": "1999-025BMK",
        "meta_epoch": "2025-12-01T21:45:02.370816",
        "meta_mean_motion": 14.03572827,
        "meta_eccentricity": 0.02905823,
        "meta_inclination": 99.0775,
        "meta_ra_of_asc_node": 40.9326,
        "meta_arg_of_pericenter": 120.8798,
        "meta_mean_anomaly": 242.1292,
        "meta_ephemeris_type": 0,
        "meta_classification_type": "U",
        "meta_norad_cat_id": 31253,
        "meta_element_set_no": 999,
        "meta_rev_at_epoch": 68846,
        "meta_bstar": 0.00057636154,
        "meta_mean_motion_dot": 1.271e-05,
        "meta_mean_motion_ddot": 0,
        "tle_line1": "1 31253U 99025BMK 25335.90627744  .00001271  00000+0  57636-3 0  9996",
        "tle_line2": "2 31253  99.0775  40.9326 0290582 120.8798 242.1292 14.03572827688461"
      },
      "geometry": {
        "type": "Point",
        "coordinates": [
          80.90147295461124,
          -75.76355008097008
        ]
      }
    },
    {
      "type": "Feature",
      "properties": {
        "norad_id": 31254,
        "name": "FENGYUN 1C DEB",
        "group": "fengyun-1c-debris",
        "lat": -66.66428012747792,
        "lon": -173.512241313388,
        "alt_km": 674.442025398459,
        "timestamp": "2025-12-02T19:35:50.837244+00:00",
        "meta_object_name": "FENGYUN 1C DEB",
        "meta_object_id": "1999-025BML",
        "meta_epoch": "2025-11-27T22:14:27.134880",
        "meta_mean_motion": 14.36276197,
        "meta_eccentricity": 0.0150752,
        "meta_inclination": 98.4636,
        "meta_ra_of_asc_node": 21.8734,
        "meta_arg_of_pericenter": 246.3529,
        "meta_mean_anomaly": 292.2282,
        "meta_ephemeris_type": 0,
        "meta_classification_type": "U",
        "meta_norad_cat_id": 31254,
        "meta_element_set_no": 999,
        "meta_rev_at_epoch": 97303,
        "meta_bstar": 0.00058845,
        "meta_mean_motion_dot": 1.909e-05,
        "meta_mean_motion_ddot": 0,
        "tle_line1": "1 31254U 99025BML 25331.92670295  .00001909  00000+0  58845-3 0  9995",
        "tle_line2": "2 31254  98.4636  21.8734 0150752 246.3529 292.2282 14.36276197973034"
      },
      "geometry": {
        "type": "Point",
        "coordinates": [
          -173.512241313388,
          -66.66428012747792
        ]
      }
    },
    {
      "type": "Feature",
      "properties": {
        "norad_id": 31255,
        "name": "FENGYUN 1C DEB",
        "group": "fengyun-1c-debris",
        "lat": 36.38856458661129,
        "lon": 146.6063793112853,
        "alt_km": 680.2268152653296,
        "timestamp": "2025-12-02T19:35:50.837254+00:00",
        "meta_object_name": "FENGYUN 1C DEB",
        "meta_object_id": "1999-025BMM",
        "meta_epoch": "2025-12-02T10:54:53.872416",
        "meta_mean_motion": 14.09706977,
        "meta_eccentricity": 0.0271065,
        "meta_inclination": 99.3087,
        "meta_ra_of_asc_node": 153.1744,
        "meta_arg_of_pericenter": 12.1458,
        "meta_mean_anomaly": 348.6076,
        "meta_ephemeris_type": 0,
        "meta_classification_type": "U",
        "meta_norad_cat_id": 31255,
        "meta_element_set_no": 999,
        "meta_rev_at_epoch": 96656,
        "meta_bstar": 0.00030841,
        "meta_mean_motion_dot": 7.1e-06,
        "meta_mean_motion_ddot": 0,
        "tle_line1": "1 31255U 99025BMM 25336.45479019  .00000710  00000+0  30841-3 0  9995",
        "tle_line2": "2 31255  99.3087 153.1744 0271065  12.1458 348.6076 14.09706977966567"
      },
      "geometry": {
        "type": "Point",
        "coordinates": [
          146.6063793112853,
          36.38856458661129
        ]
      }
    },
    {
      "type": "Feature",
      "properties": {
        "norad_id": 31256,
        "name": "FENGYUN 1C DEB",
        "group": "fengyun-1c-debris",
        "lat": 41.364051345803766,
        "lon": 12.64365032426179,
        "alt_km": 656.3081801404778,
        "timestamp": "2025-12-02T19:35:50.837264+00:00",
        "meta_object_name": "FENGYUN 1C DEB",
        "meta_object_id": "1999-025BMN",
        "meta_epoch": "2025-12-02T08:40:56.043264",
        "meta_mean_motion": 14.03060296,
        "meta_eccentricity": 0.0308488,
        "meta_inclination": 98.6812,
        "meta_ra_of_asc_node": 184.4779,
        "meta_arg_of_pericenter": 143.2966,
        "meta_mean_anomaly": 218.9768,
        "meta_ephemeris_type": 0,
        "meta_classification_type": "U",
        "meta_norad_cat_id": 31256,
        "meta_element_set_no": 999,
        "meta_rev_at_epoch": 64836,
        "meta_bstar": 0.0037601,
        "meta_mean_motion_dot": 8.874e-05,
        "meta_mean_motion_ddot": 0,
        "tle_line1": "1 31256U 99025BMN 25336.36175976  .00008874  00000+0  37601-2 0  9990",
        "tle_line2": "2 31256  98.6812 184.4779 0308488 143.2966 218.9768 14.03060296648364"
      },
      "geometry": {
        "type": "Point",
        "coordinates": [
          12.64365032426179,
          41.364051345803766
        ]
      }
    }
  ]
}